{
  "type": "FeatureCollection",
  "features": [
    {
      "type": "Feature",
      "properties": {
        "norad_id": 44873,
        "name": "CSG-1",
        "group": "resource",
        "lat": -55.07852567250937,
        "lon": 171.3003979065278,
        "alt_km": 630.4208965890612,
        "timestamp": "2025-12-04T09:47:37.180485+00:00",
        "meta_object_name": "CSG-1",
        "meta_object_id": "2019-092A",
        "meta_epoch": "2025-12-04T03:33:51.499872",
        "meta_mean_motion": 14.82145275,
        "meta_eccentricity": 0.0001474,
        "meta_inclination": 97.8806,
        "meta_ra_of_asc_node": 159.602,
        "meta_arg_of_pericenter": 86.8934,
        "meta_mean_anomaly": 273.2448,
        "meta_ephemeris_type": 0,
        "meta_classification_type": "U",
        "meta_norad_cat_id": 44873,
        "meta_element_set_no": 999,
        "meta_rev_at_epoch": 32258,
        "meta_bstar": 0.00014219,
        "meta_mean_motion_dot": 1.08e-05,
        "meta_mean_motion_ddot": 0,
        "tle_line1": "1 44873U 19092A   25338.14851273  .00001080  00000+0  14219-3 0  9997",
        "tle_line2": "2 44873  97.8806 159.6020 0001474  86.8934 273.2448 14.82145275322582"
      },
      "geometry": {
        "type": "Point",
        "coordinates": [
          171.3003979065278,
          -55.07852567250937
        ]
      }
    },
    {
      "type": "Feature",
      "properties": {
        "norad_id": 46277,
        "name": "NEMO-HD",
        "group": "resource",
        "lat": 14.639759281248079,
        "lon": -140.4875239336154,
        "alt_km": 447.1740102163676,
        "timestamp": "2025-12-04T09:47:37.180495+00:00",
        "meta_object_name": "NEMO-HD",
        "meta_object_id": "2020-061F",
        "meta_epoch": "2025-12-04T04:24:03.528288",
        "meta_mean_motion": 15.40059098,
        "meta_eccentricity": 0.0002328,
        "meta_inclination": 97.223,
        "meta_ra_of_asc_node": 37.3921,
        "meta_arg_of_pericenter": 67.2082,
        "meta_mean_anomaly": 292.941,
        "meta_ephemeris_type": 0,
        "meta_classification_type": "U",
        "meta_norad_cat_id": 46277,
        "meta_element_set_no": 999,
        "meta_rev_at_epoch": 29192,
        "meta_bstar": 0.00053824,
        "meta_mean_motion_dot": 0.00021469,
        "meta_mean_motion_ddot": 0,
        "tle_line1": "1 46277U 20061F   25338.18337417  .00021469  00000+0  53824-3 0  9996",
        "tle_line2": "2 46277  97.2230  37.3921 0002328  67.2082 292.9410 15.40059098291927"
      },
      "geometry": {
        "type": "Point",
        "coordinates": [
          -140.4875239336154,
          14.639759281248079
        ]
      }
    },
    {
      "type": "Feature",
      "properties": {
        "norad_id": 46984,
        "name": "SENTINEL-6A",
        "group": "resource",
        "lat": -20.619180473486434,
        "lon": 9.244704377825244,
        "alt_km": 1339.5250380951684,
        "timestamp": "2025-12-04T09:47:37.180506+00:00",
        "meta_object_name": "SENTINEL-6A",
        "meta_object_id": "2020-086A",
        "meta_epoch": "2025-12-03T21:29:45.509568",
        "meta_mean_motion": 12.80930156,
        "meta_eccentricity": 0.00077375,
        "meta_inclination": 66.039,
        "meta_ra_of_asc_node": 180.6775,
        "meta_arg_of_pericenter": 269.1609,
        "meta_mean_anomaly": 90.852,
        "meta_ephemeris_type": 0,
        "meta_classification_type": "U",
        "meta_norad_cat_id": 46984,
        "meta_element_set_no": 999,
        "meta_rev_at_epoch": 23531,
        "meta_bstar": 0.00017950517,
        "meta_mean_motion_dot": -2e-07,
        "meta_mean_motion_ddot": 0,
        "tle_line1": "1 46984U 20086A   25337.89566562 -.00000020  00000+0  17951-3 0  9992",
        "tle_line2": "2 46984  66.0390 180.6775 0007737 269.1609  90.8520 12.80930156235311"
      },
      "geometry": {
        "type": "Point",
        "coordinates": [
          9.244704377825244,
          -20.619180473486434
        ]
      }
    },
    {
      "type": "Feature",
      "properties": {
        "norad_id": 48079,
        "name": "GAOFEN-12 02",
        "group": "resource",
        "lat": -67.71782755237085,
        "lon": 132.42242740866507,
        "alt_km": 636.0388028585285,
        "timestamp": "2025-12-04T09:47:37.180516+00:00",
        "meta_object_name": "GAOFEN-12 02",
        "meta_object_id": "2021-026A",
        "meta_epoch": "2025-12-03T22:56:27.538656",
        "meta_mean_motion": 14.80658357,
        "meta_eccentricity": 0.00032798,
        "meta_inclination": 97.9849,
        "meta_ra_of_asc_node": 332.0049,
        "meta_arg_of_pericenter": 118.5702,
        "meta_mean_anomaly": 241.5841,
        "meta_ephemeris_type": 0,
        "meta_classification_type": "U",
        "meta_norad_cat_id": 48079,
        "meta_element_set_no": 999,
        "meta_rev_at_epoch": 25287,
        "meta_bstar": 0.00012805909,
        "meta_mean_motion_dot": 9.31e-06,
        "meta_mean_motion_ddot": 0,
        "tle_line1": "1 48079U 21026A   25337.95587429  .00000931  00000+0  12806-3 0  9990",
        "tle_line2": "2 48079  97.9849 332.0049 0003279 118.5702 241.5841 14.80658357252878"
      },
      "geometry": {
        "type": "Point",
        "coordinates": [
          132.42242740866507,
          -67.71782755237085
        ]
      }
    },
    {
      "type": "Feature",
      "properties": {
        "norad_id": 48268,
        "name": "PLEIADES NEO 3",
        "group": "resource",
        "lat": -72.26064228078917,
        "lon": 76.67509403699584,
        "alt_km": 632.2003509773576,
        "timestamp": "2025-12-04T09:47:37.180526+00:00",
        "meta_object_name": "PLEIADES NEO 3",
        "meta_object_id": "2021-034A",
        "meta_epoch": "2025-12-04T05:15:54.745632",
        "meta_mean_motion": 14.81672062,
        "meta_eccentricity": 0.0001244,
        "meta_inclination": 97.8948,
        "meta_ra_of_asc_node": 50.782,
        "meta_arg_of_pericenter": 92.3573,
        "meta_mean_anomaly": 267.7782,
        "meta_ephemeris_type": 0,
        "meta_classification_type": "U",
        "meta_norad_cat_id": 48268,
        "meta_element_set_no": 999,
        "meta_rev_at_epoch": 24878,
        "meta_bstar": -1.8637e-06,
        "meta_mean_motion_dot": -6.7e-07,
        "meta_mean_motion_ddot": 0,
        "tle_line1": "1 48268U 21034A   25338.21938363 -.00000067  00000+0 -18637-5 0  9998",
        "tle_line2": "2 48268  97.8948  50.7820 0001244  92.3573 267.7782 14.81672062248782"
      },
      "geometry": {
        "type": "Point",
        "coordinates": [
          76.67509403699584,
          -72.26064228078917
        ]
      }
    },
    {
      "type": "Feature",
      "properties": {
        "norad_id": 49070,
        "name": "PLEIADES NEO 4",
        "group": "resource",
        "lat": 72.14107014642381,
        "lon": -103.52534495713832,
        "alt_km": 616.2033206647639,
        "timestamp": "2025-12-04T09:47:37.180536+00:00",
        "meta_object_name": "PLEIADES NEO 4",
        "meta_object_id": "2021-073E",
        "meta_epoch": "2025-12-03T21:58:17.128128",
        "meta_mean_motion": 14.81671959,
        "meta_eccentricity": 0.00013149,
        "meta_inclination": 97.8949,
        "meta_ra_of_asc_node": 50.4786,
        "meta_arg_of_pericenter": 97.6472,
        "meta_mean_anomaly": 262.489,
        "meta_ephemeris_type": 0,
        "meta_classification_type": "U",
        "meta_norad_cat_id": 49070,
        "meta_element_set_no": 999,
        "meta_rev_at_epoch": 23245,
        "meta_bstar": 2.756036e-06,
        "meta_mean_motion_dot": -3e-07,
        "meta_mean_motion_ddot": 0,
        "tle_line1": "1 49070U 21073E   25337.91547602 -.00000030  00000+0  27560-5 0  9995",
        "tle_line2": "2 49070  97.8949  50.4786 0001314  97.6472 262.4890 14.81671959232450"
      },
      "geometry": {
        "type": "Point",
        "coordinates": [
          -103.52534495713832,
          72.14107014642381
        ]
      }
    },
    {
      "type": "Feature",
      "properties": {
        "norad_id": 49260,
        "name": "LANDSAT 9",
        "group": "resource",
        "lat": 41.35898283180379,
        "lon": -126.05834931313991,
        "alt_km": 698.6700526840295,
        "timestamp": "2025-12-04T09:47:37.180547+00:00",
        "meta_object_name": "LANDSAT 9",
        "meta_object_id": "2021-088A",
        "meta_epoch": "2025-12-03T18:19:47.348544",
        "meta_mean_motion": 14.57115156,
        "meta_eccentricity": 0.00010677,
        "meta_inclination": 98.2103,
        "meta_ra_of_asc_node": 46.0043,
        "meta_arg_of_pericenter": 92.7732,
        "meta_mean_anomaly": 267.3589,
        "meta_ephemeris_type": 0,
        "meta_classification_type": "U",
        "meta_norad_cat_id": 49260,
        "meta_element_set_no": 999,
        "meta_rev_at_epoch": 22254,
        "meta_bstar": 0.0001715529,
        "meta_mean_motion_dot": 7.28e-06,
        "meta_mean_motion_ddot": 0,
        "tle_line1": "1 49260U 21088A   25337.76374246  .00000728  00000+0  17155-3 0  9997",
        "tle_line2": "2 49260  98.2103  46.0043 0001067  92.7732 267.3589 14.57115156222548"
      },
      "geometry": {
        "type": "Point",
        "coordinates": [
          -126.05834931313991,
          41.35898283180379
        ]
      }
    }
  ]
}